ONEWEB-0275             
1 48993U 21060AC  25102.85865050  .00000036  00000+0  59527-4 0  9999
2 48993  87.9035 314.5636 0001786  81.6093 278.5241 13.16594399182936
ONEWEB-0276             
1 48994U 21060AD  25103.04390094  .00000075  00000+0  16358-3 0  9990
2 48994  87.9039 314.5235 0001505  79.4464 280.6837 13.16595350184274
ONEWEB-0277             
1 48995U 21060AE  25102.98055066  .00000067  00000+0  14116-3 0  9991
2 48995  87.9039 314.5733 0001743  71.0079 289.1241 13.16595894184245
ONEWEB-0278             
1 48996U 21060AF  25103.04704968  .00000063  00000+0  13055-3 0  9999
2 48996  87.9038 314.5198 0001548  92.2184 267.9124 13.16595468184404
ONEWEB-0279             
1 48997U 21060AG  25102.82697534  .00000035  00000+0  57504-4 0  9992
2 48997  87.9039 314.5598 0001839  74.2672 285.8662 13.16595270182994
ONEWEB-0280             
1 48998U 21060AH  25102.84202138  .00000022  00000+0  24746-4 0  9995
2 48998  87.9039 314.5622 0001417  80.2069 279.9222 13.16592887182933
ONEWEB-0281             
1 48999U 21060AJ  25102.84756540  .00000079  00000+0  17330-3 0  9999
2 48999  87.9037 314.5597 0001921  85.8885 274.2466 13.16594748183005
ONEWEB-0282             
1 49000U 21060AK  25102.87763747  .00000229  00000+0  56522-3 0  9996
2 49000  87.9037 314.5704 0001615  81.5586 278.5728 13.16595673182982
